[
  {
    "id": 102,
    "name_fa": "آبادان",
    "name_en": "Abadan",
    "slug": "Abadan",
    "province_id": 7,
    "latitude": 32.9925,
    "longitude": 47.419722
  },
  {
    "id": 129,
    "name_fa": "آباده",
    "name_en": "Abade",
    "slug": "Abade",
    "province_id": 8,
    "latitude": 30.347296,
    "longitude": 48.2934004
  },
  {
    "id": 296,
    "name_fa": "آبدانان",
    "name_en": "ABDANAN",
    "slug": "ABDANAN",
    "province_id": 17,
    "latitude": 32.9925,
    "longitude": 47.419722
  },
  {
    "id": 65,
    "name_fa": "آذرشهر",
    "name_en": "Azarshahr",
    "slug": "Azarshahr",
    "province_id": 4,
    "latitude": 37.758889,
    "longitude": 45.978333
  },
  {
    "id": 332,
    "name_fa": "آرادان",
    "name_en": "Aradan",
    "slug": "Aradan",
    "province_id": 21,
    "latitude": 33.860278,
    "longitude": 58.521667
  },
  {
    "id": 226,
    "name_fa": "آران وبيدگل",
    "name_en": "Aran va Bidgol",
    "slug": "Aran va Bidgol",
    "province_id": 11,
    "latitude": 34.057778,
    "longitude": 51.484167
  },
  {
    "id": 400,
    "name_fa": "آزادشهر",
    "name_en": "Azadshahr",
    "slug": "Azadshahr",
    "province_id": 28,
    "latitude": 37.758889,
    "longitude": 45.978333
  },
  {
    "id": 13,
    "name_fa": "آستارا",
    "name_en": "Astara",
    "slug": "Astara",
    "province_id": 2,
    "latitude": 38.429167,
    "longitude": 48.871944
  },
  {
    "id": 14,
    "name_fa": "آستانه اشرفيه",
    "name_en": "Astaneh",
    "slug": "Astaneh",
    "province_id": 2,
    "latitude": 37.2598022,
    "longitude": 49.9436621
  },
  {
    "id": 2,
    "name_fa": "آشتيان",
    "name_en": "Ashtian",
    "slug": "Ashtian",
    "province_id": 1,
    "latitude": 34.521944,
    "longitude": 50.006111
  },
  {
    "id": 398,
    "name_fa": "آق قلا",
    "name_en": "Aqqala",
    "slug": "Aqqala",
    "province_id": 28,
    "latitude": 37.013889,
    "longitude": 54.455
  },
  {
    "id": 29,
    "name_fa": "آمل",
    "name_en": "Amol",
    "slug": "Amol",
    "province_id": 3,
    "latitude": 36.469722,
    "longitude": 52.350833
  },
  {
    "id": 341,
    "name_fa": "ابركوه",
    "name_en": "Abarkouh",
    "slug": "Abarkouh",
    "province_id": 22,
    "latitude": 31.1304036,
    "longitude": 53.2503736
  },
  {
    "id": 319,
    "name_fa": "ابهر",
    "name_en": "Abhar",
    "slug": "Abhar",
    "province_id": 20,
    "latitude": 38.4894305,
    "longitude": 47.0683575
  },
  {
    "id": 345,
    "name_fa": "ابوموسي",
    "name_en": "Abu Musa",
    "slug": "Abu Musa",
    "province_id": 23,
    "latitude": 25.8797106,
    "longitude": 55.0328017
  },
  {
    "id": 1,
    "name_fa": "اراک",
    "name_en": "Arak",
    "slug": "Arak",
    "province_id": 1,
    "latitude": 34.091667,
    "longitude": 49.689167
  },
  {
    "id": 374,
    "name_fa": "اردبيل",
    "name_en": "Ardabil",
    "slug": "Ardabil",
    "province_id": 25,
    "latitude": 38.4853276,
    "longitude": 47.8911209
  },
  {
    "id": 209,
    "name_fa": "اردستان",
    "name_en": "Ardestān",
    "slug": "Ardestān",
    "province_id": 11,
    "latitude": 33.376111,
    "longitude": 52.369444
  },
  {
    "id": 335,
    "name_fa": "اردكان",
    "name_en": "Ardakan",
    "slug": "Ardakan",
    "province_id": 22,
    "latitude": 33.376111,
    "longitude": 52.369444
  },
  {
    "id": 275,
    "name_fa": "اردل",
    "name_en": "Ardal",
    "slug": "Ardal",
    "province_id": 15,
    "latitude": 38.4853276,
    "longitude": 47.8911209
  },
  {
    "id": 145,
    "name_fa": "ارسنجان",
    "name_en": "Arsanjan",
    "slug": "Arsanjan",
    "province_id": 8,
    "latitude": 33.376111,
    "longitude": 52.369444
  },
  {
    "id": 71,
    "name_fa": "اروميه",
    "name_en": "Address:",
    "slug": "Address:",
    "province_id": 5,
    "latitude": 37.555278,
    "longitude": 45.0725
  },
  {
    "id": 130,
    "name_fa": "استهبان",
    "name_en": "Estahban",
    "slug": "Estahban",
    "province_id": 8,
    "latitude": 35.696111,
    "longitude": 51.423056
  },
  {
    "id": 267,
    "name_fa": "اسدآباد",
    "name_en": "Asadabad",
    "slug": "Asadabad",
    "province_id": 14,
    "latitude": 37.85,
    "longitude": 46.833333
  },
  {
    "id": 88,
    "name_fa": "اسلام آبادغرب",
    "name_en": "Islamic garb",
    "slug": "Islamic garb",
    "province_id": 6,
    "latitude": 33.7293882,
    "longitude": 73.0931461
  },
  {
    "id": 364,
    "name_fa": "اسلامشهر",
    "name_en": "Eslamshahr",
    "slug": "Eslamshahr",
    "province_id": 24,
    "latitude": 35.5445805,
    "longitude": 51.2302457
  },
  {
    "id": 66,
    "name_fa": "اسکو",
    "name_en": "Osku",
    "slug": "Osku",
    "province_id": 4,
    "latitude": 37.915833,
    "longitude": 46.123611
  },
  {
    "id": 83,
    "name_fa": "اشنويه",
    "name_en": "Oshnavieh",
    "slug": "Oshnavieh",
    "province_id": 5,
    "latitude": 37.039722,
    "longitude": 45.098333
  },
  {
    "id": 210,
    "name_fa": "اصفهان",
    "name_en": "Esfahan",
    "slug": "Esfahan",
    "province_id": 11,
    "latitude": 32.6546275,
    "longitude": 51.6679826
  },
  {
    "id": 131,
    "name_fa": "اقليد",
    "name_en": "Eghlid",
    "slug": "Eghlid",
    "province_id": 8,
    "latitude": 30.898889,
    "longitude": 52.686667
  },
  {
    "id": 389,
    "name_fa": "البرز",
    "name_en": "Alborz",
    "slug": "Alborz",
    "province_id": 27,
    "latitude": 35.9960467,
    "longitude": 50.9289246
  },
  {
    "id": 103,
    "name_fa": "انديمشک",
    "name_en": "Andimeshk",
    "slug": "Andimeshk",
    "province_id": 7,
    "latitude": 32.46,
    "longitude": 48.359167
  },
  {
    "id": 51,
    "name_fa": "اهر",
    "name_en": "Ahar",
    "slug": "Ahar",
    "province_id": 4,
    "latitude": 38.4894305,
    "longitude": 47.0683575
  },
  {
    "id": 104,
    "name_fa": "اهواز",
    "name_en": "Ahvaz",
    "slug": "Ahvaz",
    "province_id": 7,
    "latitude": 31.3183272,
    "longitude": 48.6706187
  },
  {
    "id": 322,
    "name_fa": "ايجرود",
    "name_en": "Ijroud",
    "slug": "Ijroud",
    "province_id": 20,
    "latitude": 36.4160928,
    "longitude": 48.2469249
  },
  {
    "id": 105,
    "name_fa": "ايذه",
    "name_en": "Izeh",
    "slug": "Izeh",
    "province_id": 7,
    "latitude": 31.834167,
    "longitude": 49.867222
  },
  {
    "id": 233,
    "name_fa": "ايرانشهر",
    "name_en": "Iranshahr",
    "slug": "Iranshahr",
    "province_id": 12,
    "latitude": 36.694444,
    "longitude": 45.141667
  },
  {
    "id": 291,
    "name_fa": "ايلام",
    "name_en": "Ilam",
    "slug": "Ilam",
    "province_id": 17,
    "latitude": 33.2957618,
    "longitude": 46.670534
  },
  {
    "id": 297,
    "name_fa": "ايوان",
    "name_en": "Ivan",
    "slug": "Ivan",
    "province_id": 17,
    "latitude": 33.2729171,
    "longitude": 52.1985314
  },
  {
    "id": 30,
    "name_fa": "بابل",
    "name_en": "Babol",
    "slug": "Babol",
    "province_id": 3,
    "latitude": 36.7025,
    "longitude": 52.6575
  },
  {
    "id": 39,
    "name_fa": "بابلسر",
    "name_en": "Babolsar",
    "slug": "Babolsar",
    "province_id": 3,
    "latitude": 32.468191,
    "longitude": 44.5501935
  },
  {
    "id": 307,
    "name_fa": "باشت",
    "name_en": "Basht",
    "slug": "Basht",
    "province_id": 18,
    "latitude": 29.233056,
    "longitude": 56.602222
  },
  {
    "id": 116,
    "name_fa": "باغ ملک",
    "name_en": "Bag Melk",
    "slug": "Bag-Melk",
    "province_id": 7,
    "latitude": 32.3947206,
    "longitude": 51.5965328
  },
  {
    "id": 252,
    "name_fa": "بانه",
    "name_en": "Bane",
    "slug": "Bane",
    "province_id": 13,
    "latitude": 35.2747322,
    "longitude": 59.4677727
  },
  {
    "id": 125,
    "name_fa": "باوي",
    "name_en": "Bavi",
    "slug": "Bavi",
    "province_id": 7,
    "latitude": 35.2747322,
    "longitude": 59.4677727
  },
  {
    "id": 200,
    "name_fa": "بجستان",
    "name_en": "Bajestan",
    "slug": "Bajestan",
    "province_id": 10,
    "latitude": 33.376111,
    "longitude": 52.369444
  },
  {
    "id": 406,
    "name_fa": "بجنورد",
    "name_en": "Bojnoord",
    "slug": "Bojnoord",
    "province_id": 29,
    "latitude": 37.475,
    "longitude": 57.333333
  },
  {
    "id": 230,
    "name_fa": "برخوار",
    "name_en": "Borkhar",
    "slug": "Borkhar",
    "province_id": 11,
    "latitude": 34.974722,
    "longitude": 59.623611
  },
  {
    "id": 167,
    "name_fa": "بردسير",
    "name_en": "Bardsir",
    "slug": "Bardsir",
    "province_id": 9,
    "latitude": 29.9275,
    "longitude": 56.572222
  },
  {
    "id": 281,
    "name_fa": "بروجرد",
    "name_en": "Borujerd",
    "slug": "Borujerd",
    "province_id": 16,
    "latitude": 37.475,
    "longitude": 57.333333
  },
  {
    "id": 271,
    "name_fa": "بروجن",
    "name_en": "Borujen",
    "slug": "Borujen",
    "province_id": 15,
    "latitude": 31.965278,
    "longitude": 51.287222
  },
  {
    "id": 59,
    "name_fa": "بستان آباد",
    "name_en": "Bostanabad",
    "slug": "Bostanabad",
    "province_id": 4,
    "latitude": 37.85,
    "longitude": 46.833333
  },
  {
    "id": 159,
    "name_fa": "بم",
    "name_en": "Bam",
    "slug": "Bam",
    "province_id": 9,
    "latitude": 29.106111,
    "longitude": 58.356944
  },
  {
    "id": 58,
    "name_fa": "بناب",
    "name_en": "Bonab",
    "slug": "Bonab",
    "province_id": 4,
    "latitude": 37.340278,
    "longitude": 46.056111
  },
  {
    "id": 15,
    "name_fa": "بندرانزلي",
    "name_en": "Bandar Anzali",
    "slug": "Bandar-Anzali",
    "province_id": 2,
    "latitude": 37.4724467,
    "longitude": 49.4587312
  },
  {
    "id": 346,
    "name_fa": "بندرعباس",
    "name_en": "Bandar Abbas",
    "slug": "Bandar-Abbas",
    "province_id": 23,
    "latitude": 35.952222,
    "longitude": 50.6075
  },
  {
    "id": 347,
    "name_fa": "بندرلنگه",
    "name_en": "Bandare Lenge",
    "slug": "Bandare-Lenge",
    "province_id": 23,
    "latitude": 26.558056,
    "longitude": 54.880556
  },
  {
    "id": 106,
    "name_fa": "بندرماهشهر",
    "name_en": "Bandare Mahshahr",
    "slug": "Bandare-Mahshahr",
    "province_id": 7,
    "latitude": 33.139722,
    "longitude": 47.376111
  },
  {
    "id": 391,
    "name_fa": "بندرگز",
    "name_en": "Bandargaz",
    "slug": "Bandargaz",
    "province_id": 28,
    "latitude": 37.444444,
    "longitude": 59.108056
  },
  {
    "id": 344,
    "name_fa": "بهاباد",
    "name_en": "Bahabad",
    "slug": "Bahabad",
    "province_id": 22,
    "latitude": 36.763056,
    "longitude": 45.722222
  },
  {
    "id": 268,
    "name_fa": "بهار",
    "name_en": "Bahar",
    "slug": "Bahar",
    "province_id": 14,
    "latitude": 37.340278,
    "longitude": 46.056111
  },
  {
    "id": 371,
    "name_fa": "بهارستان",
    "name_en": "Baharestan",
    "slug": "Baharestan",
    "province_id": 24,
    "latitude": 33.376111,
    "longitude": 52.369444
  },
  {
    "id": 107,
    "name_fa": "بهبهان",
    "name_en": "Behbahan",
    "slug": "Behbahan",
    "province_id": 7,
    "latitude": 30.595833,
    "longitude": 50.241667
  },
  {
    "id": 31,
    "name_fa": "بهشهر",
    "name_en": "Behshahr",
    "slug": "Behshahr",
    "province_id": 3,
    "latitude": 34.9083252,
    "longitude": 48.4392729
  },
  {
    "id": 305,
    "name_fa": "بهمئي",
    "name_en": "Bahmaie",
    "slug": "Bahmaie",
    "province_id": 18,
    "latitude": 0,
    "longitude": 0
  },
  {
    "id": 309,
    "name_fa": "بوشهر",
    "name_en": "Bushehr",
    "slug": "Bushehr",
    "province_id": 19,
    "latitude": 28.9233837,
    "longitude": 50.820314
  },
  {
    "id": 80,
    "name_fa": "بوكان",
    "name_en": "Bukan",
    "slug": "Bukan",
    "province_id": 5,
    "latitude": 36.521111,
    "longitude": 46.208889
  },
  {
    "id": 253,
    "name_fa": "بيجار",
    "name_en": "Bijar",
    "slug": "Bijar",
    "province_id": 13,
    "latitude": 32.735278,
    "longitude": 59.466667
  },
  {
    "id": 413,
    "name_fa": "بيرجند",
    "name_en": "Birjand",
    "slug": "Birjand",
    "province_id": 30,
    "latitude": 32.8649039,
    "longitude": 59.2262472
  },
  {
    "id": 375,
    "name_fa": "بيله سوار",
    "name_en": "Bilesavar",
    "slug": "Bilesavar",
    "province_id": 25,
    "latitude": 39.3567775,
    "longitude": 47.9490765
  },
  {
    "id": 386,
    "name_fa": "تاكستان",
    "name_en": "Takestan",
    "slug": "Takestan",
    "province_id": 27,
    "latitude": 28.9837547,
    "longitude": 50.8330708
  },
  {
    "id": 181,
    "name_fa": "تايباد",
    "name_en": "Taybad",
    "slug": "Taybad",
    "province_id": 10,
    "latitude": 34.74,
    "longitude": 60.775556
  },
  {
    "id": 52,
    "name_fa": "تبريز",
    "name_en": "Tabriz",
    "slug": "Tabriz",
    "province_id": 4,
    "latitude": 38.066667,
    "longitude": 46.3
  },
  {
    "id": 183,
    "name_fa": "تربت جام",
    "name_en": "Torbate Jam",
    "slug": "Torbate-Jam",
    "province_id": 10,
    "latitude": 35.243889,
    "longitude": 60.6225
  },
  {
    "id": 182,
    "name_fa": "تربت حيدريه",
    "name_en": "Torbat",
    "slug": "Torbat",
    "province_id": 10,
    "latitude": 35.273889,
    "longitude": 59.219444
  },
  {
    "id": 337,
    "name_fa": "تفت",
    "name_en": "Taft",
    "slug": "Taft",
    "province_id": 22,
    "latitude": 39.630631,
    "longitude": -78.929542
  },
  {
    "id": 3,
    "name_fa": "تفرش",
    "name_en": "Tafresh",
    "slug": "Tafresh",
    "province_id": 1,
    "latitude": 34.691944,
    "longitude": 50.013056
  },
  {
    "id": 82,
    "name_fa": "تكاب",
    "name_en": "Tekab",
    "slug": "Tekab",
    "province_id": 5,
    "latitude": 37.340278,
    "longitude": 46.056111
  },
  {
    "id": 32,
    "name_fa": "تنكابن",
    "name_en": "Tonkabon",
    "slug": "Tonkabon",
    "province_id": 3,
    "latitude": 36.816389,
    "longitude": 50.873889
  },
  {
    "id": 310,
    "name_fa": "تنگستان",
    "name_en": "Tangistan",
    "slug": "Tangistan",
    "province_id": 19,
    "latitude": 28.9837547,
    "longitude": 50.8330708
  },
  {
    "id": 358,
    "name_fa": "تهران",
    "name_en": "Tehran",
    "slug": "Tehran",
    "province_id": 24,
    "latitude": 31.94,
    "longitude": 51.647778
  },
  {
    "id": 407,
    "name_fa": "جاجرم",
    "name_en": "Jajarm",
    "slug": "Jajarm",
    "province_id": 29,
    "latitude": 36.95,
    "longitude": 56.38
  },
  {
    "id": 63,
    "name_fa": "جلفا",
    "name_en": "Jolfa",
    "slug": "Jolfa",
    "province_id": 4,
    "latitude": 38.940278,
    "longitude": 45.630833
  },
  {
    "id": 317,
    "name_fa": "جم",
    "name_en": "Jam",
    "slug": "Jam",
    "province_id": 19,
    "latitude": 27.827778,
    "longitude": 52.326944
  },
  {
    "id": 132,
    "name_fa": "جهرم",
    "name_en": "Jahrom",
    "slug": "Jahrom",
    "province_id": 8,
    "latitude": 28.5,
    "longitude": 53.560556
  },
  {
    "id": 96,
    "name_fa": "جوانرود",
    "name_en": "Javanrood",
    "slug": "Javanrood",
    "province_id": 6,
    "latitude": 36.418056,
    "longitude": 54.976389
  },
  {
    "id": 43,
    "name_fa": "جويبار",
    "name_en": "Juybar",
    "slug": "Juybar",
    "province_id": 3,
    "latitude": 36.8241289,
    "longitude": 49.4237274
  },
  {
    "id": 352,
    "name_fa": "حاجي اباد",
    "name_en": "Hajiabadi",
    "slug": "Hajiabadi",
    "province_id": 23,
    "latitude": 28.309167,
    "longitude": 55.901667
  },
  {
    "id": 343,
    "name_fa": "خاتم",
    "name_en": "Khatam",
    "slug": "Khatam",
    "province_id": 22,
    "latitude": 28.1804287,
    "longitude": 55.7453367
  },
  {
    "id": 235,
    "name_fa": "خاش",
    "name_en": "Khash",
    "slug": "Khash",
    "province_id": 12,
    "latitude": 28.216667,
    "longitude": 61.2
  },
  {
    "id": 320,
    "name_fa": "خدابنده",
    "name_en": "Khodabande",
    "slug": "Khodabande",
    "province_id": 20,
    "latitude": 36.114722,
    "longitude": 48.591111
  },
  {
    "id": 282,
    "name_fa": "خرم آباد",
    "name_en": "Khorramabad",
    "slug": "Khorramabad",
    "province_id": 16,
    "latitude": 39.648333,
    "longitude": 47.9175
  },
  {
    "id": 146,
    "name_fa": "خرم بيد",
    "name_en": "Khorrambid",
    "slug": "Khorrambid",
    "province_id": 8,
    "latitude": 32.6708345,
    "longitude": 51.6470279
  },
  {
    "id": 323,
    "name_fa": "خرمدره",
    "name_en": "Khoramdeh",
    "slug": "Khoramdeh",
    "province_id": 20,
    "latitude": 30.4256219,
    "longitude": 48.1891185
  },
  {
    "id": 108,
    "name_fa": "خرمشهر",
    "name_en": "Khorramshahr",
    "slug": "Khorramshahr",
    "province_id": 7,
    "latitude": 37.758889,
    "longitude": 45.978333
  },
  {
    "id": 376,
    "name_fa": "خلخال",
    "name_en": "Khalkhal",
    "slug": "Khalkhal",
    "province_id": 25,
    "latitude": 37.618889,
    "longitude": 48.525833
  },
  {
    "id": 198,
    "name_fa": "خليل آباد",
    "name_en": "Khaliabad",
    "slug": "Khaliabad",
    "province_id": 10,
    "latitude": 35.255833,
    "longitude": 58.286389
  },
  {
    "id": 4,
    "name_fa": "خمين",
    "name_en": "Khomain",
    "slug": "Khomain",
    "province_id": 1,
    "latitude": 33.6406148,
    "longitude": 50.0771125
  },
  {
    "id": 211,
    "name_fa": "خميني شهر",
    "name_en": "Khomeini Shahr",
    "slug": "Khomeini-Shahr",
    "province_id": 11,
    "latitude": 32.700278,
    "longitude": 51.521111
  },
  {
    "id": 152,
    "name_fa": "خنج",
    "name_en": "Khonj",
    "slug": "Khonj",
    "province_id": 8,
    "latitude": 27.891389,
    "longitude": 53.434444
  },
  {
    "id": 192,
    "name_fa": "خواف",
    "name_en": "KHAF",
    "slug": "KHAF",
    "province_id": 10,
    "latitude": 34.576389,
    "longitude": 60.140833
  },
  {
    "id": 212,
    "name_fa": "خوانسار",
    "name_en": "Khansar",
    "slug": "Khansar",
    "province_id": 11,
    "latitude": 33.220556,
    "longitude": 50.315
  },
  {
    "id": 422,
    "name_fa": "خوسف",
    "name_en": "Khoosf",
    "slug": "Khoosf",
    "province_id": 30,
    "latitude": 34.576389,
    "longitude": 60.140833
  },
  {
    "id": 133,
    "name_fa": "داراب",
    "name_en": "Darab",
    "slug": "Darab",
    "province_id": 8,
    "latitude": 37.940833,
    "longitude": 47.536667
  },
  {
    "id": 327,
    "name_fa": "دامغان",
    "name_en": "Damghan",
    "slug": "Damghan",
    "province_id": 21,
    "latitude": 31.94,
    "longitude": 51.647778
  },
  {
    "id": 184,
    "name_fa": "درگز",
    "name_en": "Dargaz",
    "slug": "Dargaz",
    "province_id": 10,
    "latitude": 37.444444,
    "longitude": 59.108056
  },
  {
    "id": 109,
    "name_fa": "دزفول",
    "name_en": "Dezful",
    "slug": "Dezful",
    "province_id": 7,
    "latitude": 32.3830777,
    "longitude": 48.4235841
  },
  {
    "id": 110,
    "name_fa": "دشت آزادگان",
    "name_en": "DashteAzadegan",
    "slug": "DashteAzadegan",
    "province_id": 7,
    "latitude": 30.347296,
    "longitude": 48.2934004
  },
  {
    "id": 311,
    "name_fa": "دشتستان",
    "name_en": "Dashtestan",
    "slug": "Dashtestan",
    "province_id": 19,
    "latitude": 29.266667,
    "longitude": 51.216667
  },
  {
    "id": 312,
    "name_fa": "دشتي",
    "name_en": "Dashti",
    "slug": "Dashti",
    "province_id": 19,
    "latitude": 35.7845145,
    "longitude": 51.4347961
  },
  {
    "id": 283,
    "name_fa": "دلفان",
    "name_en": "Delfan",
    "slug": "Delfan",
    "province_id": 16,
    "latitude": 38.940278,
    "longitude": 45.630833
  },
  {
    "id": 5,
    "name_fa": "دليجان",
    "name_en": "Delijan",
    "slug": "Delijan",
    "province_id": 1,
    "latitude": 32.4750168,
    "longitude": 51.3050851
  },
  {
    "id": 244,
    "name_fa": "دلگان",
    "name_en": "Dlgan",
    "slug": "Dlgan",
    "province_id": 12,
    "latitude": 27.6077357,
    "longitude": 59.4720904
  },
  {
    "id": 359,
    "name_fa": "دماوند",
    "name_en": "Damavand",
    "slug": "Damavand",
    "province_id": 24,
    "latitude": 35.9467494,
    "longitude": 52.1275481
  },
  {
    "id": 304,
    "name_fa": "دنا",
    "name_en": "Dena",
    "slug": "Dena",
    "province_id": 18,
    "latitude": 30.9516666,
    "longitude": 51.4375
  },
  {
    "id": 261,
    "name_fa": "دهگلان",
    "name_en": "Dehgolan",
    "slug": "Dehgolan",
    "province_id": 13,
    "latitude": 31.94,
    "longitude": 51.647778
  },
  {
    "id": 284,
    "name_fa": "دورود",
    "name_en": "Dorud",
    "slug": "Dorud",
    "province_id": 16,
    "latitude": 34.806667,
    "longitude": 46.488611
  },
  {
    "id": 316,
    "name_fa": "ديلم",
    "name_en": "Daylam",
    "slug": "Daylam",
    "province_id": 19,
    "latitude": 30.1182632,
    "longitude": 50.2261227
  },
  {
    "id": 258,
    "name_fa": "ديواندره",
    "name_en": "Divandareh",
    "slug": "Divandareh",
    "province_id": 13,
    "latitude": 35.913889,
    "longitude": 47.023889
  },
  {
    "id": 175,
    "name_fa": "رابر",
    "name_en": "Seal",
    "slug": "Seal",
    "province_id": 9,
    "latitude": 37.940833,
    "longitude": 47.536667
  },
  {
    "id": 33,
    "name_fa": "رامسر",
    "name_en": "Ramsar",
    "slug": "Ramsar",
    "province_id": 3,
    "latitude": 36.903056,
    "longitude": 50.658333
  },
  {
    "id": 120,
    "name_fa": "رامشير",
    "name_en": "Ramshir",
    "slug": "Ramshir",
    "province_id": 7,
    "latitude": 30.4256219,
    "longitude": 48.1891185
  },
  {
    "id": 111,
    "name_fa": "رامهرمز",
    "name_en": "Ramhormoz",
    "slug": "Ramhormoz",
    "province_id": 7,
    "latitude": 31.28,
    "longitude": 49.603611
  },
  {
    "id": 401,
    "name_fa": "راميان",
    "name_en": "Ramian",
    "slug": "Ramian",
    "province_id": 28,
    "latitude": 33.2729171,
    "longitude": 52.1985314
  },
  {
    "id": 168,
    "name_fa": "راور",
    "name_en": "Raver",
    "slug": "Raver",
    "province_id": 9,
    "latitude": 31.265556,
    "longitude": 56.805556
  },
  {
    "id": 365,
    "name_fa": "رباطكريم",
    "name_en": "Robat Karim",
    "slug": "Robat-Karim",
    "province_id": 24,
    "latitude": 35.484722,
    "longitude": 51.082778
  },
  {
    "id": 269,
    "name_fa": "رزن",
    "name_en": "Razan",
    "slug": "Razan",
    "province_id": 14,
    "latitude": 35.386667,
    "longitude": 49.033889
  },
  {
    "id": 154,
    "name_fa": "رستم",
    "name_en": "Rustam",
    "slug": "Rustam",
    "province_id": 8,
    "latitude": 37.2709152,
    "longitude": 49.5969146
  },
  {
    "id": 17,
    "name_fa": "رشت",
    "name_en": "Rasht",
    "slug": "Rasht",
    "province_id": 2,
    "latitude": 37.280833,
    "longitude": 49.583056
  },
  {
    "id": 196,
    "name_fa": "رشتخوار",
    "name_en": "Roshtkhar",
    "slug": "Roshtkhar",
    "province_id": 10,
    "latitude": 34.974722,
    "longitude": 59.623611
  },
  {
    "id": 26,
    "name_fa": "رضوانشهر",
    "name_en": "Rezvan shahr",
    "slug": "Rezvan-shahr",
    "province_id": 2,
    "latitude": 36.694444,
    "longitude": 45.141667
  },
  {
    "id": 161,
    "name_fa": "رفسنجان",
    "name_en": "Rafsanjan",
    "slug": "Rafsanjan",
    "province_id": 9,
    "latitude": 32.4750168,
    "longitude": 51.3050851
  },
  {
    "id": 101,
    "name_fa": "روانسر",
    "name_en": "Rawansar",
    "slug": "Rawansar",
    "province_id": 6,
    "latitude": 33.220556,
    "longitude": 50.315
  },
  {
    "id": 18,
    "name_fa": "رودبار",
    "name_en": "Rudbar",
    "slug": "Rudbar",
    "province_id": 2,
    "latitude": 36.641111,
    "longitude": 52.9125
  },
  {
    "id": 172,
    "name_fa": "رودبارجنوب",
    "name_en": "Rvdbarjnvb",
    "slug": "Rvdbarjnvb",
    "province_id": 9,
    "latitude": 36.8241289,
    "longitude": 49.4237274
  },
  {
    "id": 19,
    "name_fa": "رودسر",
    "name_en": "Rudsar",
    "slug": "Rudsar",
    "province_id": 2,
    "latitude": 37.1378415,
    "longitude": 50.2836199
  },
  {
    "id": 290,
    "name_fa": "رومشکان",
    "name_en": "Rvmshkan",
    "slug": "Rvmshkan",
    "province_id": 16,
    "latitude": 36.521111,
    "longitude": 46.208889
  },
  {
    "id": 174,
    "name_fa": "ريگان",
    "name_en": "Reagan",
    "slug": "Reagan",
    "province_id": 9,
    "latitude": 27.6077357,
    "longitude": 59.4720904
  },
  {
    "id": 236,
    "name_fa": "زابل",
    "name_en": "Zabul",
    "slug": "Zabul",
    "province_id": 12,
    "latitude": 31.028611,
    "longitude": 61.501111
  },
  {
    "id": 237,
    "name_fa": "زاهدان",
    "name_en": "Zahedan",
    "slug": "Zahedan",
    "province_id": 12,
    "latitude": 30.347296,
    "longitude": 48.2934004
  },
  {
    "id": 204,
    "name_fa": "زاوه",
    "name_en": "Zavh",
    "slug": "Zavh",
    "province_id": 10,
    "latitude": 35.2747322,
    "longitude": 59.4677727
  },
  {
    "id": 162,
    "name_fa": "زرند",
    "name_en": "Zarand",
    "slug": "Zarand",
    "province_id": 9,
    "latitude": 38.425117,
    "longitude": 45.769636
  },
  {
    "id": 9,
    "name_fa": "زرنديه",
    "name_en": "Zarandieh",
    "slug": "Zarandieh",
    "province_id": 1,
    "latitude": 30.812778,
    "longitude": 56.563889
  },
  {
    "id": 147,
    "name_fa": "زرين دشت",
    "name_en": "Zarrin dasht",
    "slug": "Zarrindasht",
    "province_id": 8,
    "latitude": 28.3545047,
    "longitude": 54.4178006
  },
  {
    "id": 321,
    "name_fa": "زنجان",
    "name_en": "Zanjan",
    "slug": "Zanjan",
    "province_id": 20,
    "latitude": 32.4750168,
    "longitude": 51.3050851
  },
  {
    "id": 421,
    "name_fa": "زيرکوه",
    "name_en": "Zirkouh",
    "slug": "Zirkouh",
    "province_id": 30,
    "latitude": 31.1304036,
    "longitude": 53.2503736
  },
  {
    "id": 34,
    "name_fa": "سارئ",
    "name_en": "Sari",
    "slug": "Sari",
    "province_id": 3,
    "latitude": 36.563333,
    "longitude": 53.06
  },
  {
    "id": 278,
    "name_fa": "سامان",
    "name_en": "Saman",
    "slug": "Saman",
    "province_id": 15,
    "latitude": 31.94,
    "longitude": 51.647778
  },
  {
    "id": 6,
    "name_fa": "ساوه",
    "name_en": "Saveh",
    "slug": "Saveh",
    "province_id": 1,
    "latitude": 35.2747322,
    "longitude": 59.4677727
  },
  {
    "id": 185,
    "name_fa": "سبزوار",
    "name_en": "Sabzevar",
    "slug": "Sabzevar",
    "province_id": 10,
    "latitude": 36.2151823,
    "longitude": 57.6678228
  },
  {
    "id": 53,
    "name_fa": "سراب",
    "name_en": "Sarab",
    "slug": "Sarab",
    "province_id": 4,
    "latitude": 37.940833,
    "longitude": 47.536667
  },
  {
    "id": 238,
    "name_fa": "سراوان",
    "name_en": "Saravan",
    "slug": "Saravan",
    "province_id": 12,
    "latitude": 33.860278,
    "longitude": 58.521667
  },
  {
    "id": 415,
    "name_fa": "سربيشه",
    "name_en": "Sarbishe",
    "slug": "Sarbishe",
    "province_id": 30,
    "latitude": 32.575556,
    "longitude": 59.798333
  },
  {
    "id": 334,
    "name_fa": "سرخه",
    "name_en": "Sorkhe",
    "slug": "Sorkhe",
    "province_id": 21,
    "latitude": 36.545,
    "longitude": 61.157778
  },
  {
    "id": 74,
    "name_fa": "سردشت",
    "name_en": "Sardasht",
    "slug": "Sardasht",
    "province_id": 5,
    "latitude": 36.155278,
    "longitude": 45.478889
  },
  {
    "id": 260,
    "name_fa": "سروآباد",
    "name_en": "Sarvabad",
    "slug": "Sarvabad",
    "province_id": 13,
    "latitude": 37.85,
    "longitude": 46.833333
  },
  {
    "id": 153,
    "name_fa": "سروستان",
    "name_en": "Sarvestan",
    "slug": "Sarvestan",
    "province_id": 8,
    "latitude": 33.376111,
    "longitude": 52.369444
  },
  {
    "id": 91,
    "name_fa": "سرپل ذهاب",
    "name_en": "Sarpolzahab",
    "slug": "Sarpolzahab",
    "province_id": 6,
    "latitude": 34.461111,
    "longitude": 45.862778
  },
  {
    "id": 254,
    "name_fa": "سقز",
    "name_en": "Sagez",
    "slug": "Sagez",
    "province_id": 13,
    "latitude": 36.246389,
    "longitude": 46.266389
  },
  {
    "id": 288,
    "name_fa": "سلسله",
    "name_en": "Series",
    "slug": "Series",
    "province_id": 16,
    "latitude": 32.045776,
    "longitude": 34.751639
  },
  {
    "id": 75,
    "name_fa": "سلماس",
    "name_en": "Salmas",
    "slug": "Salmas",
    "province_id": 5,
    "latitude": 38.197222,
    "longitude": 44.765278
  },
  {
    "id": 328,
    "name_fa": "سمنان",
    "name_en": "Semnan",
    "slug": "Semnan",
    "province_id": 21,
    "latitude": 35.2255585,
    "longitude": 54.4342138
  },
  {
    "id": 213,
    "name_fa": "سميرم",
    "name_en": "Semirom",
    "slug": "Semirom",
    "province_id": 11,
    "latitude": 31.3988346,
    "longitude": 51.567593
  },
  {
    "id": 92,
    "name_fa": "سنقر",
    "name_en": "Sanger",
    "slug": "Sanger",
    "province_id": 6,
    "latitude": 34.783611,
    "longitude": 47.600278
  },
  {
    "id": 255,
    "name_fa": "سنندج",
    "name_en": "Sanandaj",
    "slug": "Sanandaj",
    "province_id": 13,
    "latitude": 35.3218748,
    "longitude": 46.9861647
  },
  {
    "id": 35,
    "name_fa": "سوادكوه",
    "name_en": "Savadkooh",
    "slug": "Savadkooh",
    "province_id": 3,
    "latitude": 36.3040255,
    "longitude": 52.8852403
  },
  {
    "id": 163,
    "name_fa": "سيرجان",
    "name_en": "Sirjan",
    "slug": "Sirjan",
    "province_id": 9,
    "latitude": 33.860278,
    "longitude": 58.521667
  },
  {
    "id": 299,
    "name_fa": "سيروان",
    "name_en": "Sirvan",
    "slug": "Sirvan",
    "province_id": 17,
    "latitude": 37.4092357,
    "longitude": 57.9276184
  },
  {
    "id": 134,
    "name_fa": "سپيدان",
    "name_en": "Sepidan",
    "slug": "Sepidan",
    "province_id": 8,
    "latitude": 30.2425282,
    "longitude": 51.9924185
  },
  {
    "id": 112,
    "name_fa": "شادگان",
    "name_en": "Shadegan",
    "slug": "Shadegan",
    "province_id": 7,
    "latitude": 32.768333,
    "longitude": 50.628611
  },
  {
    "id": 7,
    "name_fa": "شازند",
    "name_en": "Shazand",
    "slug": "Shazand",
    "province_id": 1,
    "latitude": 33.455833,
    "longitude": 49.455556
  },
  {
    "id": 329,
    "name_fa": "شاهرود",
    "name_en": "Anymore",
    "slug": "Anymore",
    "province_id": 21,
    "latitude": 37.477778,
    "longitude": 47.050833
  },
  {
    "id": 81,
    "name_fa": "شاهين دژ",
    "name_en": "Shahindezh",
    "slug": "Shahindezh",
    "province_id": 5,
    "latitude": 36.679167,
    "longitude": 46.566944
  },
  {
    "id": 224,
    "name_fa": "شاهين شهروميمه",
    "name_en": "Shahin Shhrvmymh",
    "slug": "Shahin-Shhrvmymh",
    "province_id": 11,
    "latitude": 33.1271852,
    "longitude": 51.5150077
  },
  {
    "id": 60,
    "name_fa": "شبستر",
    "name_en": "Shabestar",
    "slug": "Shabestar",
    "province_id": 4,
    "latitude": 38.180278,
    "longitude": 45.702778
  },
  {
    "id": 24,
    "name_fa": "شفت",
    "name_en": "Shaft",
    "slug": "Shaft",
    "province_id": 2,
    "latitude": 39.630631,
    "longitude": -78.929542
  },
  {
    "id": 361,
    "name_fa": "شميرانات",
    "name_en": "Shemiranat",
    "slug": "Shemiranat",
    "province_id": 24,
    "latitude": 35.9548021,
    "longitude": 51.5991643
  },
  {
    "id": 164,
    "name_fa": "شهربابك",
    "name_en": "Shahrbabak",
    "slug": "Shahrbabak",
    "province_id": 9,
    "latitude": 30.116389,
    "longitude": 55.118611
  },
  {
    "id": 272,
    "name_fa": "شهركرد",
    "name_en": "Shahr Kord",
    "slug": "Shahr-Kord",
    "province_id": 15,
    "latitude": 32.325556,
    "longitude": 50.864444
  },
  {
    "id": 363,
    "name_fa": "شهريار",
    "name_en": "Shahriyar",
    "slug": "Shahriyar",
    "province_id": 24,
    "latitude": 35.659722,
    "longitude": 51.059167
  },
  {
    "id": 115,
    "name_fa": "شوش",
    "name_en": "Shush",
    "slug": "Shush",
    "province_id": 7,
    "latitude": 32.194167,
    "longitude": 48.243611
  },
  {
    "id": 113,
    "name_fa": "شوشتر",
    "name_en": "Shushtar",
    "slug": "Shushtar",
    "province_id": 7,
    "latitude": 32.194167,
    "longitude": 48.243611
  },
  {
    "id": 135,
    "name_fa": "شيراز",
    "name_en": "Shiraz",
    "slug": "Shiraz",
    "province_id": 8,
    "latitude": 29.5917677,
    "longitude": 52.5836982
  },
  {
    "id": 408,
    "name_fa": "شيروان",
    "name_en": "Shirvan",
    "slug": "Shirvan",
    "province_id": 29,
    "latitude": 37.4092357,
    "longitude": 57.9276184
  },
  {
    "id": 97,
    "name_fa": "صحنه",
    "name_en": "Scene",
    "slug": "Scene",
    "province_id": 6,
    "latitude": 35.9985999,
    "longitude": 45.8823428
  },
  {
    "id": 20,
    "name_fa": "صومعه سرا",
    "name_en": "Somesara",
    "slug": "Somesara",
    "province_id": 2,
    "latitude": 37.311667,
    "longitude": 49.321944
  },
  {
    "id": 324,
    "name_fa": "طارم",
    "name_en": "Tarom",
    "slug": "Tarom",
    "province_id": 20,
    "latitude": 36.95,
    "longitude": 56.38
  },
  {
    "id": 427,
    "name_fa": "طالقان",
    "name_en": "Taleghan",
    "slug": "Taleghan",
    "province_id": 31,
    "latitude": 31.94,
    "longitude": 51.647778
  },
  {
    "id": 423,
    "name_fa": "طبس",
    "name_en": "Peaks",
    "slug": "Peaks",
    "province_id": 30,
    "latitude": 33.595833,
    "longitude": 56.924444
  },
  {
    "id": 16,
    "name_fa": "طوالش",
    "name_en": "Tvalsh",
    "slug": "Tvalsh",
    "province_id": 2,
    "latitude": 37,
    "longitude": 48.4222222
  },
  {
    "id": 46,
    "name_fa": "عباس آباد",
    "name_en": "Abbas Abad",
    "slug": "Abbas-Abad",
    "province_id": 3,
    "latitude": 37.85,
    "longitude": 46.833333
  },
  {
    "id": 69,
    "name_fa": "عجب شير",
    "name_en": "Ajabshir",
    "slug": "Ajabshir",
    "province_id": 4,
    "latitude": 37.4775,
    "longitude": 45.894167
  },
  {
    "id": 393,
    "name_fa": "علي آباد",
    "name_en": "Ali Abad",
    "slug": "Ali-Abad",
    "province_id": 28,
    "latitude": 32.6324231,
    "longitude": 51.3679914
  },
  {
    "id": 169,
    "name_fa": "عنبرآباد",
    "name_en": "Anbarabad",
    "slug": "Anbarabad",
    "province_id": 9,
    "latitude": 35.952222,
    "longitude": 50.6075
  },
  {
    "id": 273,
    "name_fa": "فارسان",
    "name_en": "Farsan",
    "slug": "Farsan",
    "province_id": 15,
    "latitude": 33.376111,
    "longitude": 52.369444
  },
  {
    "id": 409,
    "name_fa": "فاروج",
    "name_en": "Faruj",
    "slug": "Faruj",
    "province_id": 29,
    "latitude": 37.231111,
    "longitude": 58.218889
  },
  {
    "id": 150,
    "name_fa": "فراشبند",
    "name_en": "Farashband",
    "slug": "Farashband",
    "province_id": 8,
    "latitude": 28.871389,
    "longitude": 52.091667
  },
  {
    "id": 12,
    "name_fa": "فراهان",
    "name_en": "Farahan",
    "slug": "Farahan",
    "province_id": 1,
    "latitude": 38.509722,
    "longitude": 46.654444
  },
  {
    "id": 419,
    "name_fa": "فردوس",
    "name_en": "Paradise",
    "slug": "Paradise",
    "province_id": 30,
    "latitude": 34.018611,
    "longitude": 58.172222
  },
  {
    "id": 429,
    "name_fa": "فرديس",
    "name_en": "Fardis",
    "slug": "Fardis",
    "province_id": 31,
    "latitude": 34.018611,
    "longitude": 58.172222
  },
  {
    "id": 214,
    "name_fa": "فريدن",
    "name_en": "Frieden",
    "slug": "Frieden",
    "province_id": 11,
    "latitude": 33.0214829,
    "longitude": 50.3069088
  },
  {
    "id": 215,
    "name_fa": "فريدونشهر",
    "name_en": "Fereidun shahr",
    "slug": "Fereidun-shahr",
    "province_id": 11,
    "latitude": 32.941111,
    "longitude": 50.121111
  },
  {
    "id": 45,
    "name_fa": "فريدونكنار",
    "name_en": "Fereidoonkenar",
    "slug": "Fereidoonkenar",
    "province_id": 3,
    "latitude": 36.686389,
    "longitude": 52.5225
  },
  {
    "id": 194,
    "name_fa": "فريمان",
    "name_en": "FARIMAN",
    "slug": "FARIMAN",
    "province_id": 10,
    "latitude": 35.706944,
    "longitude": 59.85
  },
  {
    "id": 136,
    "name_fa": "فسا",
    "name_en": "Fasa",
    "slug": "Fasa",
    "province_id": 8,
    "latitude": 28.938333,
    "longitude": 53.648333
  },
  {
    "id": 216,
    "name_fa": "فلاورجان",
    "name_en": "Falavarjan",
    "slug": "Falavarjan",
    "province_id": 11,
    "latitude": 32.555278,
    "longitude": 51.509722
  },
  {
    "id": 251,
    "name_fa": "فنوج",
    "name_en": "Fenouj",
    "slug": "Fenouj",
    "province_id": 12,
    "latitude": 27.9467603,
    "longitude": 57.7062572
  },
  {
    "id": 21,
    "name_fa": "فومن",
    "name_en": "Fooman",
    "slug": "Fooman",
    "province_id": 2,
    "latitude": 37.223889,
    "longitude": 49.3125
  },
  {
    "id": 137,
    "name_fa": "فيروزآباد",
    "name_en": "Firozabad",
    "slug": "Firozabad",
    "province_id": 8,
    "latitude": 28.843889,
    "longitude": 52.570833
  },
  {
    "id": 367,
    "name_fa": "فيروزكوه",
    "name_en": "Firouzkouh",
    "slug": "Firouzkouh",
    "province_id": 24,
    "latitude": 35.438671,
    "longitude": 60.809387
  },
  {
    "id": 36,
    "name_fa": "قائم شهر",
    "name_en": "Qaemshahr",
    "slug": "Qaemshahr",
    "province_id": 3,
    "latitude": 35.5445805,
    "longitude": 51.2302457
  },
  {
    "id": 416,
    "name_fa": "قائنات",
    "name_en": "Ghaenat",
    "slug": "Ghaenat",
    "province_id": 30,
    "latitude": 33.726667,
    "longitude": 59.184444
  },
  {
    "id": 256,
    "name_fa": "قروه",
    "name_en": "Qorveh",
    "slug": "Qorveh",
    "province_id": 13,
    "latitude": 35.1678934,
    "longitude": 47.8038272
  },
  {
    "id": 387,
    "name_fa": "قزوين",
    "name_en": "Qazvin",
    "slug": "Qazvin",
    "province_id": 27,
    "latitude": 36.0881317,
    "longitude": 49.8547266
  },
  {
    "id": 348,
    "name_fa": "قشم",
    "name_en": "Qeshm",
    "slug": "Qeshm",
    "province_id": 23,
    "latitude": 34.6399443,
    "longitude": 50.8759419
  },
  {
    "id": 93,
    "name_fa": "قصرشيرين",
    "name_en": "Qasre Shirin",
    "slug": "Qasre-Shirin",
    "province_id": 6,
    "latitude": 34.5159031,
    "longitude": 45.5776859
  },
  {
    "id": 173,
    "name_fa": "قلعه گنج",
    "name_en": "Gale Ganj",
    "slug": "Gale-Ganj",
    "province_id": 9,
    "latitude": 27.523611,
    "longitude": 57.881111
  },
  {
    "id": 384,
    "name_fa": "قم",
    "name_en": "Qom",
    "slug": "Qom",
    "province_id": 26,
    "latitude": 34.6399443,
    "longitude": 50.8759419
  },
  {
    "id": 186,
    "name_fa": "قوچان",
    "name_en": "Ghoochan",
    "slug": "Ghoochan",
    "province_id": 10,
    "latitude": 37.106111,
    "longitude": 58.509444
  },
  {
    "id": 148,
    "name_fa": "قيروکارزين",
    "name_en": "Qyrvkarzyn",
    "slug": "Qyrvkarzyn",
    "province_id": 8,
    "latitude": 28.42998,
    "longitude": 53.09516
  },
  {
    "id": 187,
    "name_fa": "كاشمر",
    "name_en": "Kashmar",
    "slug": "Kashmar",
    "province_id": 10,
    "latitude": 35.238333,
    "longitude": 58.465556
  },
  {
    "id": 259,
    "name_fa": "كامياران",
    "name_en": "Kamyaran",
    "slug": "Kamyaran",
    "province_id": 13,
    "latitude": 34.795556,
    "longitude": 46.935556
  },
  {
    "id": 266,
    "name_fa": "كبودرآهنگ",
    "name_en": "Kaboudarahang",
    "slug": "Kaboudarahang",
    "province_id": 14,
    "latitude": 35.208333,
    "longitude": 48.723889
  },
  {
    "id": 165,
    "name_fa": "كرمان",
    "name_en": "Kerman",
    "slug": "Kerman",
    "province_id": 9,
    "latitude": 35.706944,
    "longitude": 59.85
  },
  {
    "id": 197,
    "name_fa": "كلات",
    "name_en": "Kalat",
    "slug": "Kalat",
    "province_id": 10,
    "latitude": 34.198333,
    "longitude": 58.544444
  },
  {
    "id": 399,
    "name_fa": "كلاله",
    "name_en": "Stigma",
    "slug": "Stigma",
    "province_id": 28,
    "latitude": 37.380833,
    "longitude": 55.491667
  },
  {
    "id": 314,
    "name_fa": "كنگان",
    "name_en": "Kangan",
    "slug": "Kangan",
    "province_id": 19,
    "latitude": 27.8370437,
    "longitude": 52.0645473
  },
  {
    "id": 166,
    "name_fa": "كهنوج",
    "name_en": "Kahnooj",
    "slug": "Kahnooj",
    "province_id": 9,
    "latitude": 27.9467603,
    "longitude": 57.7062572
  },
  {
    "id": 380,
    "name_fa": "كوثر",
    "name_en": "Kosar",
    "slug": "Kosar",
    "province_id": 25,
    "latitude": 31.8676866,
    "longitude": 54.3379802
  },
  {
    "id": 171,
    "name_fa": "كوهبنان",
    "name_en": "Kuhbanan",
    "slug": "Kuhbanan",
    "province_id": 9,
    "latitude": 31.541944,
    "longitude": 60.036389
  },
  {
    "id": 276,
    "name_fa": "كوهرنگ",
    "name_en": "Kouhrang",
    "slug": "Kouhrang",
    "province_id": 15,
    "latitude": 32.5558364,
    "longitude": 51.6787252
  },
  {
    "id": 139,
    "name_fa": "لارستان",
    "name_en": "Larestan",
    "slug": "Larestan",
    "province_id": 8,
    "latitude": 33.376111,
    "longitude": 52.369444
  },
  {
    "id": 118,
    "name_fa": "لالي",
    "name_en": "Lali",
    "slug": "Lali",
    "province_id": 7,
    "latitude": 32.328889,
    "longitude": 49.093611
  },
  {
    "id": 143,
    "name_fa": "لامرد",
    "name_en": "Lamerd",
    "slug": "Lamerd",
    "province_id": 8,
    "latitude": 27.3423771,
    "longitude": 53.1803558
  },
  {
    "id": 23,
    "name_fa": "لاهيجان",
    "name_en": "Lahijan",
    "slug": "Lahijan",
    "province_id": 2,
    "latitude": 32.555278,
    "longitude": 51.509722
  },
  {
    "id": 274,
    "name_fa": "لردگان",
    "name_en": "Lordegan",
    "slug": "Lordegan",
    "province_id": 15,
    "latitude": 32.768333,
    "longitude": 50.628611
  },
  {
    "id": 220,
    "name_fa": "لنجان",
    "name_en": "Lenjan",
    "slug": "Lenjan",
    "province_id": 11,
    "latitude": 32.4750168,
    "longitude": 51.3050851
  },
  {
    "id": 308,
    "name_fa": "لنده",
    "name_en": "Landhe",
    "slug": "Landhe",
    "province_id": 18,
    "latitude": 36.955278,
    "longitude": 45.388056
  },
  {
    "id": 340,
    "name_fa": "یزد",
    "name_en": "Yazd",
    "slug": "Yazd",
    "province_id": 22,
    "latitude": 31.8794521,
    "longitude": 54.171953
  },
  {
    "id": 22,
    "name_fa": "لنگرود",
    "name_en": "Langerud",
    "slug": "Langerud",
    "province_id": 2,
    "latitude": 37.196944,
    "longitude": 50.153611
  },
  {
    "id": 28,
    "name_fa": "ماسال",
    "name_en": "Masal",
    "slug": "Masal",
    "province_id": 2,
    "latitude": 37.3621185,
    "longitude": 49.1314769
  },
  {
    "id": 76,
    "name_fa": "ماكو",
    "name_en": "Maku",
    "slug": "Maku",
    "province_id": 5,
    "latitude": 39.295278,
    "longitude": 44.516667
  },
  {
    "id": 325,
    "name_fa": "ماهنشان",
    "name_en": "Mahneshan",
    "slug": "Mahneshan",
    "province_id": 20,
    "latitude": 33.122222,
    "longitude": 46.164722
  },
  {
    "id": 225,
    "name_fa": "مبارکه",
    "name_en": "Mobarakeh",
    "slug": "Mobarakeh",
    "province_id": 11,
    "latitude": 32.346389,
    "longitude": 51.504444
  },
  {
    "id": 8,
    "name_fa": "محلات",
    "name_en": "Mahalat",
    "slug": "Mahalat",
    "province_id": 1,
    "latitude": 33.9085748,
    "longitude": 50.4552616
  },
  {
    "id": 40,
    "name_fa": "محمودآباد",
    "name_en": "Mahmudabad",
    "slug": "Mahmudabad",
    "province_id": 3,
    "latitude": 28.843889,
    "longitude": 52.570833
  },
  {
    "id": 54,
    "name_fa": "مراغه",
    "name_en": "Maragheh",
    "slug": "Maragheh",
    "province_id": 4,
    "latitude": 37.389167,
    "longitude": 46.2375
  },
  {
    "id": 55,
    "name_fa": "مرند",
    "name_en": "Marand",
    "slug": "Marand",
    "province_id": 4,
    "latitude": 38.425117,
    "longitude": 45.769636
  },
  {
    "id": 140,
    "name_fa": "مرودشت",
    "name_en": "MARVDASHT",
    "slug": "MARVDASHT",
    "province_id": 8,
    "latitude": 29.874167,
    "longitude": 52.8025
  },
  {
    "id": 257,
    "name_fa": "مريوان",
    "name_en": "Marivan",
    "slug": "Marivan",
    "province_id": 13,
    "latitude": 35.526944,
    "longitude": 46.176389
  },
  {
    "id": 114,
    "name_fa": "مسجدسليمان",
    "name_en": "Masjed Soleiman",
    "slug": "Masjed Soleiman",
    "province_id": 7,
    "latitude": 31.936389,
    "longitude": 49.303889
  },
  {
    "id": 189,
    "name_fa": "مشهد",
    "name_en": "Mashhad",
    "slug": "Mashhad",
    "province_id": 10,
    "latitude": 38.425117,
    "longitude": 45.769636
  },
  {
    "id": 377,
    "name_fa": "مشگين شهر",
    "name_en": "Meshkinshar",
    "slug": "Meshkinshar",
    "province_id": 25,
    "latitude": 32.941111,
    "longitude": 50.121111
  },
  {
    "id": 369,
    "name_fa": "ملارد",
    "name_en": "Mallard",
    "slug": "Mallard",
    "province_id": 24,
    "latitude": 27.3423771,
    "longitude": 53.1803558
  },
  {
    "id": 263,
    "name_fa": "ملاير",
    "name_en": "Malayer",
    "slug": "Malayer",
    "province_id": 14,
    "latitude": 34.296944,
    "longitude": 48.823611
  },
  {
    "id": 64,
    "name_fa": "ملکان",
    "name_en": "Malakan",
    "slug": "Malakan",
    "province_id": 4,
    "latitude": 37.145625,
    "longitude": 46.1685242
  },
  {
    "id": 170,
    "name_fa": "منوجان",
    "name_en": "Manoujan",
    "slug": "Manoujan",
    "province_id": 9,
    "latitude": 32.4750168,
    "longitude": 51.3050851
  },
  {
    "id": 77,
    "name_fa": "مهاباد",
    "name_en": "Mahabad",
    "slug": "Mahabad",
    "province_id": 5,
    "latitude": 36.763056,
    "longitude": 45.722222
  },
  {
    "id": 331,
    "name_fa": "مهدئ شهر",
    "name_en": "Mehdi Shahr",
    "slug": "Mehdi-Shahr",
    "province_id": 21,
    "latitude": 35.7,
    "longitude": 53.35
  },
  {
    "id": 295,
    "name_fa": "مهران",
    "name_en": "Mehran",
    "slug": "Mehran",
    "province_id": 17,
    "latitude": 33.122222,
    "longitude": 46.164722
  },
  {
    "id": 245,
    "name_fa": "مهرستان",
    "name_en": "Your spouse",
    "slug": "Your spouse",
    "province_id": 12,
    "latitude": 33.122222,
    "longitude": 46.164722
  },
  {
    "id": 338,
    "name_fa": "مهريز",
    "name_en": "Mehriz",
    "slug": "Mehriz",
    "province_id": 22,
    "latitude": 31.28,
    "longitude": 49.603611
  },
  {
    "id": 78,
    "name_fa": "مياندوآب",
    "name_en": "Miandoab",
    "slug": "Miandoab",
    "province_id": 5,
    "latitude": 36.969444,
    "longitude": 46.102778
  },
  {
    "id": 56,
    "name_fa": "ميانه",
    "name_en": "Mianeh",
    "slug": "Mianeh",
    "province_id": 4,
    "latitude": 37.421111,
    "longitude": 47.715
  },
  {
    "id": 342,
    "name_fa": "ميبد",
    "name_en": "Meibod",
    "slug": "Meibod",
    "province_id": 22,
    "latitude": 32.2487226,
    "longitude": 54.0079341
  },
  {
    "id": 349,
    "name_fa": "ميناب",
    "name_en": "Minab",
    "slug": "Minab",
    "province_id": 23,
    "latitude": 27.146667,
    "longitude": 57.08
  },
  {
    "id": 397,
    "name_fa": "مينودشت",
    "name_en": "Minoodasht",
    "slug": "Minoodasht",
    "province_id": 28,
    "latitude": 29.874167,
    "longitude": 52.8025
  },
  {
    "id": 222,
    "name_fa": "نجف آباد",
    "name_en": "Najaf Abad",
    "slug": "Najaf-Abad",
    "province_id": 11,
    "latitude": 32.6324231,
    "longitude": 51.3679914
  },
  {
    "id": 178,
    "name_fa": "نرماشير",
    "name_en": "Narmashir",
    "slug": "Narmashir",
    "province_id": 9,
    "latitude": 30.558889,
    "longitude": 49.198056
  },
  {
    "id": 223,
    "name_fa": "نطنز",
    "name_en": "Natanz",
    "slug": "Natanz",
    "province_id": 11,
    "latitude": 33.513333,
    "longitude": 51.916389
  },
  {
    "id": 426,
    "name_fa": "نظرآباد",
    "name_en": "Nazarabad",
    "slug": "Nazarabad",
    "province_id": 31,
    "latitude": 39.648333,
    "longitude": 47.9175
  },
  {
    "id": 79,
    "name_fa": "نقده",
    "name_en": "Tinsel",
    "slug": "Tinsel",
    "province_id": 5,
    "latitude": 36.955278,
    "longitude": 45.388056
  },
  {
    "id": 381,
    "name_fa": "نمين",
    "name_en": "Namin",
    "slug": "Namin",
    "province_id": 25,
    "latitude": 38.426944,
    "longitude": 48.483889
  },
  {
    "id": 264,
    "name_fa": "نهاوند",
    "name_en": "Skinheads",
    "slug": "Skinheads",
    "province_id": 14,
    "latitude": 35.9467494,
    "longitude": 52.1275481
  },
  {
    "id": 417,
    "name_fa": "نهبندان",
    "name_en": "Nehbandan",
    "slug": "Nehbandan",
    "province_id": 30,
    "latitude": 31.541944,
    "longitude": 60.036389
  },
  {
    "id": 37,
    "name_fa": "نور",
    "name_en": "Nur",
    "slug": "Nur",
    "province_id": 3,
    "latitude": 36.648889,
    "longitude": 51.496111
  },
  {
    "id": 38,
    "name_fa": "نوشهر",
    "name_en": "Noshahr",
    "slug": "Noshahr",
    "province_id": 3,
    "latitude": 36.648889,
    "longitude": 51.496111
  },
  {
    "id": 382,
    "name_fa": "نير",
    "name_en": "Nir",
    "slug": "Nir",
    "province_id": 25,
    "latitude": 50.3851246,
    "longitude": 3.2642436
  },
  {
    "id": 190,
    "name_fa": "نيشابور",
    "name_en": "Neyshabur",
    "slug": "Neyshabur",
    "province_id": 10,
    "latitude": 36.2140865,
    "longitude": 58.7960915
  },
  {
    "id": 239,
    "name_fa": "نيك شهر",
    "name_en": "Nikshahr",
    "slug": "Nikshahr",
    "province_id": 12,
    "latitude": 36.648889,
    "longitude": 51.496111
  },
  {
    "id": 98,
    "name_fa": "هرسين",
    "name_en": "Harsin",
    "slug": "Harsin",
    "province_id": 6,
    "latitude": 34.2719149,
    "longitude": 47.6046183
  },
  {
    "id": 62,
    "name_fa": "هريس",
    "name_en": "Harris",
    "slug": "Harris",
    "province_id": 4,
    "latitude": 29.7751825,
    "longitude": -95.3102505
  },
  {
    "id": 57,
    "name_fa": "هشترود",
    "name_en": "Hashtrood",
    "slug": "Hashtrood",
    "province_id": 4,
    "latitude": 37.477778,
    "longitude": 47.050833
  },
  {
    "id": 265,
    "name_fa": "همدان",
    "name_en": "Hamedan",
    "slug": "Hamedan",
    "province_id": 14,
    "latitude": 31.541944,
    "longitude": 60.036389
  },
  {
    "id": 119,
    "name_fa": "هنديجان",
    "name_en": "Hendijan",
    "slug": "Hendijan",
    "province_id": 7,
    "latitude": 32.4750168,
    "longitude": 51.3050851
  },
  {
    "id": 362,
    "name_fa": "ورامين",
    "name_en": "Varamin",
    "slug": "Varamin",
    "province_id": 24,
    "latitude": 35.3252407,
    "longitude": 51.6471987
  },
  {
    "id": 68,
    "name_fa": "ورزقان",
    "name_en": "Varzeghan",
    "slug": "Varzeghan",
    "province_id": 4,
    "latitude": 38.509722,
    "longitude": 46.654444
  },
  {
    "id": 379,
    "name_fa": "پارس آباد",
    "name_en": "Pars Abad",
    "slug": "Pars Abad",
    "province_id": 25,
    "latitude": 39.648333,
    "longitude": 47.9175
  },
  {
    "id": 355,
    "name_fa": "پارسيان",
    "name_en": "Parsian",
    "slug": "Parsian",
    "province_id": 23,
    "latitude": 32.2582066,
    "longitude": 50.5705088
  },
  {
    "id": 151,
    "name_fa": "پاسارگاد",
    "name_en": "Pasargad",
    "slug": "Pasargad",
    "province_id": 8,
    "latitude": 39.648333,
    "longitude": 47.9175
  },
  {
    "id": 366,
    "name_fa": "پاكدشت",
    "name_en": "Pakdasht",
    "slug": "Pakdasht",
    "province_id": 24,
    "latitude": 35.4668913,
    "longitude": 51.6860625
  },
  {
    "id": 90,
    "name_fa": "پاوه",
    "name_en": "Pave",
    "slug": "Pave",
    "province_id": 6,
    "latitude": 29.579167,
    "longitude": 50.516944
  },
  {
    "id": 372,
    "name_fa": "پرديس",
    "name_en": "Pardis",
    "slug": "Pardis",
    "province_id": 24,
    "latitude": 34.018611,
    "longitude": 58.172222
  },
  {
    "id": 287,
    "name_fa": "پلدختر",
    "name_en": "Poldokhtar",
    "slug": "Poldokhtar",
    "province_id": 16,
    "latitude": 33.153611,
    "longitude": 47.713611
  },
  {
    "id": 85,
    "name_fa": "پلدشت",
    "name_en": "Demands",
    "slug": "Demands",
    "province_id": 5,
    "latitude": 33.153611,
    "longitude": 47.713611
  },
  {
    "id": 72,
    "name_fa": "پيرانشهر",
    "name_en": "Piranshar",
    "slug": "Piranshar",
    "province_id": 5,
    "latitude": 36.694444,
    "longitude": 45.141667
  },
  {
    "id": 228,
    "name_fa": "چادگان",
    "name_en": "Chadegan",
    "slug": "Chadegan",
    "province_id": 11,
    "latitude": 39.0649837,
    "longitude": 44.3844679
  },
  {
    "id": 67,
    "name_fa": "چاراويماق",
    "name_en": "Charoymagh",
    "slug": "Charoymagh",
    "province_id": 4,
    "latitude": 37.1299052,
    "longitude": 47.0245686
  },
  {
    "id": 84,
    "name_fa": "چالدران",
    "name_en": "Chalderan",
    "slug": "Chalderan",
    "province_id": 5,
    "latitude": 39.0649837,
    "longitude": 44.3844679
  },
  {
    "id": 42,
    "name_fa": "چالوس",
    "name_en": "Chalus",
    "slug": "Chalus",
    "province_id": 3,
    "latitude": 36.6459174,
    "longitude": 51.406979
  },
  {
    "id": 234,
    "name_fa": "چابهار",
    "name_en": "ChaBahar",
    "slug": "ChaBahar",
    "province_id": 12,
    "latitude": 25.291944,
    "longitude": 60.643056
  },
  {
    "id": 191,
    "name_fa": "چناران",
    "name_en": "Chenaran",
    "slug": "Chenaran",
    "province_id": 10,
    "latitude": 39.0649837,
    "longitude": 44.3844679
  },
  {
    "id": 128,
    "name_fa": "کارون",
    "name_en": "Karun",
    "slug": "Karun",
    "province_id": 7,
    "latitude": 29.619444,
    "longitude": 51.654167
  },
  {
    "id": 138,
    "name_fa": "کازرون",
    "name_en": "Kazeroon",
    "slug": "Kazeroon",
    "province_id": 8,
    "latitude": 29.619444,
    "longitude": 51.654167
  },
  {
    "id": 218,
    "name_fa": "کاشان",
    "name_en": "Kashan",
    "slug": "Kashan",
    "province_id": 11,
    "latitude": 33.9850358,
    "longitude": 51.4099625
  },
  {
    "id": 424,
    "name_fa": "کرج",
    "name_en": "Karaj",
    "slug": "Karaj",
    "province_id": 31,
    "latitude": 35.8400188,
    "longitude": 50.9390906
  },
  {
    "id": 89,
    "name_fa": "کرمانشاه",
    "name_en": "Kermanshah",
    "slug": "Kermanshah",
    "province_id": 6,
    "latitude": 29.4850089,
    "longitude": 57.6439048
  },
  {
    "id": 50,
    "name_fa": "کلاردشت",
    "name_en": "Kelardasht",
    "slug": "Kelardasht",
    "province_id": 3,
    "latitude": 36.155278,
    "longitude": 45.478889
  },
  {
    "id": 61,
    "name_fa": "کليبر",
    "name_en": "Kalibar",
    "slug": "Kalibar",
    "province_id": 4,
    "latitude": 38.869444,
    "longitude": 47.035556
  },
  {
    "id": 10,
    "name_fa": "کميجان",
    "name_en": "Komijan",
    "slug": "Komijan",
    "province_id": 1,
    "latitude": 27.4475626,
    "longitude": 57.5051616
  },
  {
    "id": 94,
    "name_fa": "کنگاور",
    "name_en": "Kangavar",
    "slug": "Kangavar",
    "province_id": 6,
    "latitude": 27.8370437,
    "longitude": 52.0645473
  },
  {
    "id": 156,
    "name_fa": "کوار",
    "name_en": "Kovar",
    "slug": "Kovar",
    "province_id": 8,
    "latitude": 31.8676866,
    "longitude": 54.3379802
  },
  {
    "id": 285,
    "name_fa": "کوهدشت",
    "name_en": "Kuhdasht",
    "slug": "Kuhdasht",
    "province_id": 16,
    "latitude": 33.535,
    "longitude": 47.606111
  },
  {
    "id": 330,
    "name_fa": "گرمسار",
    "name_en": "Garmsar",
    "slug": "Garmsar",
    "province_id": 21,
    "latitude": 35.218333,
    "longitude": 52.340833
  },
  {
    "id": 395,
    "name_fa": "گرگان",
    "name_en": "Gorgan",
    "slug": "Gorgan",
    "province_id": 28,
    "latitude": 36.8456427,
    "longitude": 54.4393363
  },
  {
    "id": 44,
    "name_fa": "گلوگاه",
    "name_en": "Galugah",
    "slug": "Galugah",
    "province_id": 3,
    "latitude": 36.727222,
    "longitude": 53.808889
  },
  {
    "id": 219,
    "name_fa": "گلپايگان",
    "name_en": "Golpaygan",
    "slug": "Golpaygan",
    "province_id": 11,
    "latitude": 33.453611,
    "longitude": 50.288333
  },
  {
    "id": 188,
    "name_fa": "گناباد",
    "name_en": "Gonabad",
    "slug": "Gonabad",
    "province_id": 10,
    "latitude": 36.763056,
    "longitude": 45.722222
  },
  {
    "id": 315,
    "name_fa": "گناوه",
    "name_en": "Ganaveh",
    "slug": "Ganaveh",
    "province_id": 19,
    "latitude": 29.579167,
    "longitude": 50.516944
  },
  {
    "id": 396,
    "name_fa": "گنبدكاووس",
    "name_en": "Gonbad kavoos",
    "slug": "Gonbad-kavoos",
    "province_id": 28,
    "latitude": 37.25,
    "longitude": 55.167222
  },
  {
    "id": 95,
    "name_fa": "گيلانغرب",
    "name_en": "Gilangharb",
    "slug": "Gilangharb",
    "province_id": 6,
    "latitude": 34.142222,
    "longitude": 45.920278
  },
  {
    "id": 303,
    "name_fa": "گچساران",
    "name_en": "Gachsaran",
    "slug": "Gachsaran",
    "province_id": 18,
    "latitude": 36.645556,
    "longitude": 59.121111
  }
]